start=new Date('2022-04-17T00:00:00.000Z').valueOf();
sats=[{"FILE":"3404767","APOAPSIS":"548.722","PERIOD":"95.594","BSTAR":"-0.00060208000000","SITE":"AFETR","OBJECT_TYPE":"PAYLOAD","TLE_LINE2":"2 46359  53.0545 238.9303 0002052  40.0174 320.0966 15.06371428 90488","PERIAPSIS":"545.880","TIME_SYSTEM":"UTC","ECCENTRICITY":"0.00020520","GP_ID":"201419224","INCLINATION":"53.0545","CLASSIFICATION_TYPE":"U","RA_OF_ASC_NODE":"238.9303","REV_AT_EPOCH":"9048","EPOCH":"2022-04-16T20:46:25.563360","SEMIMAJOR_AXIS":"6925.436","MEAN_ELEMENT_THEORY":"SGP4","NORAD_CAT_ID":"46359","MEAN_MOTION_DOT":"-0.00009232","MEAN_MOTION":"15.06371428","COUNTRY_CODE":"US","OBJECT_ID":"2020-062AL","DECAY_DATE":null,"EPHEMERIS_TYPE":"0","REF_FRAME":"TEME","CENTER_NAME":"EARTH","MEAN_MOTION_DDOT":"0.0000000000000","OBJECT_NAME":"STARLINK-1707","ARG_OF_PERICENTER":"40.0174","RCS_SIZE":"LARGE","TLE_LINE1":"1 46359U 20062AL  22106.86557365 -.00009232  00000-0 -60208-3 0  9990","MEAN_ANOMALY":"320.0966","ELEMENT_SET_NO":"999","LAUNCH_DATE":"2020-09-03"},{"OBJECT_TYPE":"PAYLOAD","TLE_LINE2":"2 46360  53.0542 239.1283 0002134  59.0614 301.0585 15.06370795 90489","PERIAPSIS":"545.825","TIME_SYSTEM":"UTC","ECCENTRICITY":"0.00021340","FILE":"3404767","APOAPSIS":"548.781","PERIOD":"95.594","BSTAR":"-0.00067971000000","SITE":"AFETR","REV_AT_EPOCH":"9048","EPOCH":"2022-04-16T19:42:44.335872","SEMIMAJOR_AXIS":"6925.438","MEAN_ELEMENT_THEORY":"SGP4","GP_ID":"201417475","RA_OF_ASC_NODE":"239.1283","INCLINATION":"53.0542","CLASSIFICATION_TYPE":"U","OBJECT_ID":"2020-062AM","DECAY_DATE":null,"EPHEMERIS_TYPE":"0","NORAD_CAT_ID":"46360","MEAN_MOTION_DOT":"-0.00010384","COUNTRY_CODE":"US","MEAN_MOTION":"15.06370795","TLE_LINE1":"1 46360U 20062AM  22106.82134648 -.00010384  00000-0 -67971-3 0  9997","MEAN_ANOMALY":"301.0585","LAUNCH_DATE":"2020-09-03","ELEMENT_SET_NO":"999","REF_FRAME":"TEME","CENTER_NAME":"EARTH","MEAN_MOTION_DDOT":"0.0000000000000","OBJECT_NAME":"STARLINK-1713","ARG_OF_PERICENTER":"59.0614","RCS_SIZE":"LARGE"},{"COUNTRY_CODE":"US","MEAN_MOTION":"15.06378245","NORAD_CAT_ID":"46361","MEAN_MOTION_DOT":"-0.00006329","EPHEMERIS_TYPE":"0","OBJECT_ID":"2020-062AN","DECAY_DATE":null,"OBJECT_NAME":"STARLINK-1722","ARG_OF_PERICENTER":"59.1044","RCS_SIZE":"LARGE","REF_FRAME":"TEME","CENTER_NAME":"EARTH","MEAN_MOTION_DDOT":"0.0000000000000","MEAN_ANOMALY":"301.0113","LAUNCH_DATE":"2020-09-03","ELEMENT_SET_NO":"999","TLE_LINE1":"1 46361U 20062AN  22106.85820564 -.00006329  00000-0 -40657-3 0  9996","APOAPSIS":"548.464","PERIOD":"95.594","BSTAR":"-0.00040657000000","SITE":"AFETR","FILE":"3404767","ECCENTRICITY":"0.00017090","OBJECT_TYPE":"PAYLOAD","TLE_LINE2":"2 46361  53.0528 238.9653 0001709  59.1044 301.0113 15.06378245 90482","TIME_SYSTEM":"UTC","PERIAPSIS":"546.097","GP_ID":"201418226","RA_OF_ASC_NODE":"238.9653","INCLINATION":"53.0528","CLASSIFICATION_TYPE":"U","MEAN_ELEMENT_THEORY":"SGP4","REV_AT_EPOCH":"9048","EPOCH":"2022-04-16T20:35:48.967296","SEMIMAJOR_AXIS":"6925.415"},{"DECAY_DATE":null,"OBJECT_ID":"2020-062AP","EPHEMERIS_TYPE":"0","MEAN_MOTION_DOT":"-0.00000344","NORAD_CAT_ID":"46362","COUNTRY_CODE":"US","MEAN_MOTION":"15.06390025","TLE_LINE1":"1 46362U 20062AP  22106.63704393 -.00000344  00000-0 -41695-5 0  9990","ELEMENT_SET_NO":"999","LAUNCH_DATE":"2020-09-03","MEAN_ANOMALY":"307.0380","MEAN_MOTION_DDOT":"0.0000000000000","CENTER_NAME":"EARTH","REF_FRAME":"TEME","RCS_SIZE":"LARGE","ARG_OF_PERICENTER":"53.0745","OBJECT_NAME":"STARLINK-1726","PERIAPSIS":"546.213","TIME_SYSTEM":"UTC","TLE_LINE2":"2 46362  53.0554 239.9477 0001489  53.0745 307.0380 15.06390025 90452","OBJECT_TYPE":"PAYLOAD","ECCENTRICITY":"0.00014890","FILE":"3404767","SITE":"AFETR","BSTAR":"-0.00000416950000","APOAPSIS":"548.275","PERIOD":"95.593","SEMIMAJOR_AXIS":"6925.379","REV_AT_EPOCH":"9045","EPOCH":"2022-04-16T15:17:20.595552","MEAN_ELEMENT_THEORY":"SGP4","RA_OF_ASC_NODE":"239.9477","CLASSIFICATION_TYPE":"U","INCLINATION":"53.0554","GP_ID":"201418477"},{"RCS_SIZE":"LARGE","ARG_OF_PERICENTER":"46.8922","OBJECT_NAME":"STARLINK-1739","MEAN_MOTION_DDOT":"0.0000000000000","CENTER_NAME":"EARTH","REF_FRAME":"TEME","LAUNCH_DATE":"2020-09-03","ELEMENT_SET_NO":"999","MEAN_ANOMALY":"313.2229","TLE_LINE1":"1 46363U 20062AQ  22106.76237052 -.00010256  00000-0 -67105-3 0  9993","MEAN_MOTION":"15.06373671","COUNTRY_CODE":"US","MEAN_MOTION_DOT":"-0.00010256","NORAD_CAT_ID":"46363","EPHEMERIS_TYPE":"0","DECAY_DATE":null,"OBJECT_ID":"2020-062AQ","RA_OF_ASC_NODE":"239.3754","INCLINATION":"53.0536","CLASSIFICATION_TYPE":"U","GP_ID":"201418724","MEAN_ELEMENT_THEORY":"SGP4","SEMIMAJOR_AXIS":"6925.429","REV_AT_EPOCH":"9047","EPOCH":"2022-04-16T18:17:48.812928","SITE":"AFETR","BSTAR":"-0.00067105000000","APOAPSIS":"548.633","PERIOD":"95.594","FILE":"3404767","ECCENTRICITY":"0.00019330","TIME_SYSTEM":"UTC","PERIAPSIS":"545.956","TLE_LINE2":"2 46363  53.0536 239.3754 0001933  46.8922 313.2229 15.06373671 90477","OBJECT_TYPE":"PAYLOAD"},{"MEAN_MOTION_DOT":"-0.00001610","NORAD_CAT_ID":"46364","COUNTRY_CODE":"US","MEAN_MOTION":"15.06394593","DECAY_DATE":null,"OBJECT_ID":"2020-062AR","EPHEMERIS_TYPE":"0","CENTER_NAME":"EARTH","MEAN_MOTION_DDOT":"0.0000000000000","REF_FRAME":"TEME","RCS_SIZE":"LARGE","OBJECT_NAME":"STARLINK-1763","ARG_OF_PERICENTER":"160.3228","TLE_LINE1":"1 46364U 20062AR  22106.58633589 -.00001610  00000-0 -89241-4 0  9999","MEAN_ANOMALY":"199.7814","ELEMENT_SET_NO":"999","LAUNCH_DATE":"2020-09-03","FILE":"3404318","SITE":"AFETR","APOAPSIS":"548.167","PERIOD":"95.592","BSTAR":"-0.00008924100000","TIME_SYSTEM":"UTC","PERIAPSIS":"546.293","OBJECT_TYPE":"PAYLOAD","TLE_LINE2":"2 46364  53.0478 220.2205 0001353 160.3228 199.7814 15.06394593 90721","ECCENTRICITY":"0.00013530","RA_OF_ASC_NODE":"220.2205","INCLINATION":"53.0478","CLASSIFICATION_TYPE":"U","GP_ID":"201383079","SEMIMAJOR_AXIS":"6925.365","REV_AT_EPOCH":"9072","EPOCH":"2022-04-16T14:04:19.420896","MEAN_ELEMENT_THEORY":"SGP4"},{"MEAN_ANOMALY":"308.9240","LAUNCH_DATE":"2020-09-03","ELEMENT_SET_NO":"999","TLE_LINE1":"1 46365U 20062AS  22106.87294376 -.00002029  00000-0 -11740-3 0  9992","RCS_SIZE":"LARGE","OBJECT_NAME":"STARLINK-1550","ARG_OF_PERICENTER":"51.1896","CENTER_NAME":"EARTH","MEAN_MOTION_DDOT":"0.0000000000000","REF_FRAME":"TEME","EPHEMERIS_TYPE":"0","DECAY_DATE":null,"OBJECT_ID":"2020-062AS","MEAN_MOTION":"15.06390790","COUNTRY_CODE":"US","MEAN_MOTION_DOT":"-0.00002029","NORAD_CAT_ID":"46365","MEAN_ELEMENT_THEORY":"SGP4","SEMIMAJOR_AXIS":"6925.377","EPOCH":"2022-04-16T20:57:02.340864","REV_AT_EPOCH":"9048","RA_OF_ASC_NODE":"238.8836","CLASSIFICATION_TYPE":"U","INCLINATION":"53.0540","GP_ID":"201417726","ECCENTRICITY":"0.00016570","TIME_SYSTEM":"UTC","PERIAPSIS":"546.094","OBJECT_TYPE":"PAYLOAD","TLE_LINE2":"2 46365  53.0540 238.8836 0001657  51.1896 308.9240 15.06390790 90487","SITE":"AFETR","PERIOD":"95.593","APOAPSIS":"548.389","BSTAR":"-0.00011740000000","FILE":"3404767"},{"OBJECT_ID":"2020-062AT","DECAY_DATE":null,"EPHEMERIS_TYPE":"0","NORAD_CAT_ID":"46366","MEAN_MOTION_DOT":"-0.00008541","COUNTRY_CODE":"US","MEAN_MOTION":"15.06372252","TLE_LINE1":"1 46366U 20062AT  22106.72919882 -.00008541  00000-0 -55559-3 0  9994","MEAN_ANOMALY":"298.1462","LAUNCH_DATE":"2020-09-03","ELEMENT_SET_NO":"999","REF_FRAME":"TEME","CENTER_NAME":"EARTH","MEAN_MOTION_DDOT":"0.0000000000000","OBJECT_NAME":"STARLINK-1651","ARG_OF_PERICENTER":"61.9703","RCS_SIZE":"LARGE","OBJECT_TYPE":"PAYLOAD","TLE_LINE2":"2 46366  53.0544 239.5345 0001741  61.9703 298.1462 15.06372252 90462","PERIAPSIS":"546.093","TIME_SYSTEM":"UTC","ECCENTRICITY":"0.00017410","FILE":"3404767","PERIOD":"95.594","APOAPSIS":"548.504","BSTAR":"-0.00055559000000","SITE":"AFETR","EPOCH":"2022-04-16T17:30:02.778048","REV_AT_EPOCH":"9046","SEMIMAJOR_AXIS":"6925.434","MEAN_ELEMENT_THEORY":"SGP4","GP_ID":"201418978","CLASSIFICATION_TYPE":"U","INCLINATION":"53.0544","RA_OF_ASC_NODE":"239.5345"},{"MEAN_MOTION_DDOT":"0.0000000000000","CENTER_NAME":"EARTH","REF_FRAME":"TEME","RCS_SIZE":"LARGE","ARG_OF_PERICENTER":"54.6382","OBJECT_NAME":"STARLINK-1658","TLE_LINE1":"1 46368U 20062AV  22106.86143876 -.00006398  00000-0 -41130-3 0  9991","ELEMENT_SET_NO":"999","LAUNCH_DATE":"2020-09-03","MEAN_ANOMALY":"305.4769","MEAN_MOTION_DOT":"-0.00006398","NORAD_CAT_ID":"46368","MEAN_MOTION":"15.06373714","COUNTRY_CODE":"US","DECAY_DATE":null,"OBJECT_ID":"2020-062AV","EPHEMERIS_TYPE":"0","CLASSIFICATION_TYPE":"U","INCLINATION":"53.0530","RA_OF_ASC_NODE":"263.9418","GP_ID":"201419225","SEMIMAJOR_AXIS":"6925.429","REV_AT_EPOCH":"9014","EPOCH":"2022-04-16T20:40:28.308864","MEAN_ELEMENT_THEORY":"SGP4","FILE":"3404767","SITE":"AFETR","BSTAR":"-0.00041130000000","PERIOD":"95.594","APOAPSIS":"548.498","PERIAPSIS":"546.090","TIME_SYSTEM":"UTC","TLE_LINE2":"2 46368  53.0530 263.9418 0001739  54.6382 305.4769 15.06373714 90141","OBJECT_TYPE":"PAYLOAD","ECCENTRICITY":"0.00017390"},{"MEAN_ANOMALY":"304.2907","ELEMENT_SET_NO":"999","LAUNCH_DATE":"2020-09-03","TLE_LINE1":"1 46370U 20062AX  22106.82456969 -.00008717  00000-0 -56745-3 0  9995","OBJECT_NAME":"STARLINK-1670","ARG_OF_PERICENTER":"55.8259","RCS_SIZE":"LARGE","REF_FRAME":"TEME","CENTER_NAME":"EARTH","MEAN_MOTION_DDOT":"0.0000000000000","EPHEMERIS_TYPE":"0","OBJECT_ID":"2020-062AX","DECAY_DATE":null,"MEAN_MOTION":"15.06371411","COUNTRY_CODE":"US","NORAD_CAT_ID":"46370","MEAN_MOTION_DOT":"-0.00008717","MEAN_ELEMENT_THEORY":"SGP4","EPOCH":"2022-04-16T19:47:22.821216","REV_AT_EPOCH":"9013","SEMIMAJOR_AXIS":"6925.436","GP_ID":"201417476","INCLINATION":"53.0529","CLASSIFICATION_TYPE":"U","RA_OF_ASC_NODE":"264.1210","ECCENTRICITY":"0.00018690","OBJECT_TYPE":"PAYLOAD","TLE_LINE2":"2 46370  53.0529 264.1210 0001869  55.8259 304.2907 15.06371411 90137","PERIAPSIS":"546.007","TIME_SYSTEM":"UTC","APOAPSIS":"548.596","PERIOD":"95.594","BSTAR":"-0.00056745000000","SITE":"AFETR","FILE":"3404767"}];
